[{"OBJECT_NAME":"STARLINK-32800","OBJECT_ID":"2025-014J","EPOCH":"2026-03-09T23:00:32.728896","MEAN_MOTION":15.27580308,"ECCENTRICITY":0.00013849,"INCLINATION":43.0009,"RA_OF_ASC_NODE":160.2166,"ARG_OF_PERICENTER":273.5722,"MEAN_ANOMALY":86.4972,"EPHEMERIS_TYPE":0,"CLASSIFICATION_TYPE":"U","NORAD_CAT_ID":62743,"ELEMENT_SET_NO":999,"REV_AT_EPOCH":6321,"BSTAR":0.0011843568,"MEAN_MOTION_DOT":0.00032473,"MEAN_MOTION_DDOT":0},{"OBJECT_NAME":"SL-12 R\/B(AUX MOTOR)","OBJECT_ID":"2005-010D","EPOCH":"2026-03-09T20:01:33.221856","MEAN_MOTION":6.31397948,"ECCENTRICITY":0.46233469,"INCLINATION":47.2548,"RA_OF_ASC_NODE":184.1921,"ARG_OF_PERICENTER":88.4951,"MEAN_ANOMALY":322.1023,"EPHEMERIS_TYPE":0,"CLASSIFICATION_TYPE":"U","NORAD_CAT_ID":28632,"ELEMENT_SET_NO":999,"REV_AT_EPOCH":24721,"BSTAR":0.0015499191,"MEAN_MOTION_DOT":0.00020025,"MEAN_MOTION_DDOT":0}]
